{
  "links" : {
    "next" : "https://api.nasa.gov/neo/rest/v1/feed?start_date=1997-08-09&end_date=1997-08-09&detailed=true&api_key=t0TVs3DtDT2H8Oy2Zy8m2eVrNsAVKAexjcZXUckd",
    "prev" : "https://api.nasa.gov/neo/rest/v1/feed?start_date=1997-08-07&end_date=1997-08-07&detailed=true&api_key=t0TVs3DtDT2H8Oy2Zy8m2eVrNsAVKAexjcZXUckd",
    "self" : "https://api.nasa.gov/neo/rest/v1/feed?start_date=1997-08-08&end_date=1997-08-08&detailed=true&api_key=t0TVs3DtDT2H8Oy2Zy8m2eVrNsAVKAexjcZXUckd"
  },
  "element_count" : 5,
  "near_earth_objects" : {
    "1997-08-08" : [ {
      "links" : {
        "self" : "https://api.nasa.gov/neo/rest/v1/neo/3381260?api_key=t0TVs3DtDT2H8Oy2Zy8m2eVrNsAVKAexjcZXUckd"
      },
      "neo_reference_id" : "3381260",
      "name" : "(2007 PS9)",
      "nasa_jpl_url" : "http://ssd.jpl.nasa.gov/sbdb.cgi?sstr=3381260",
      "absolute_magnitude_h" : 23.6,
      "estimated_diameter" : {
        "kilometers" : {
          "estimated_diameter_min" : 0.0506471459,
          "estimated_diameter_max" : 0.1132504611
        },
        "meters" : {
          "estimated_diameter_min" : 50.6471458835,
          "estimated_diameter_max" : 113.2504610618
        },
        "miles" : {
          "estimated_diameter_min" : 0.0314706677,
          "estimated_diameter_max" : 0.0703705522
        },
        "feet" : {
          "estimated_diameter_min" : 166.1651821003,
          "estimated_diameter_max" : 371.5566426699
        }
      },
      "is_potentially_hazardous_asteroid" : false,
      "close_approach_data" : [ {
        "close_approach_date" : "1997-08-08",
        "epoch_date_close_approach" : 871023600000,
        "relative_velocity" : {
          "kilometers_per_second" : "10.60314048",
          "kilometers_per_hour" : "38171.3057279924",
          "miles_per_hour" : "23718.1649397073"
        },
        "miss_distance" : {
          "astronomical" : "0.2779260683",
          "lunar" : "108.1132354736",
          "kilometers" : "41577148",
          "miles" : "25834842"
        },
        "orbiting_body" : "Earth"
      } ],
      "orbital_data" : {
        "orbit_id" : "20",
        "orbit_determination_date" : "2017-09-28 06:48:13",
        "orbit_uncertainty" : "0",
        "minimum_orbit_intersection" : ".0361478",
        "jupiter_tisserand_invariant" : "5.738",
        "epoch_osculation" : "2458000.5",
        "eccentricity" : ".07676250405768589",
        "semi_major_axis" : "1.074678738223025",
        "inclination" : "8.704056817613212",
        "ascending_node_longitude" : "313.2112436964442",
        "orbital_period" : "406.9269112862668",
        "perihelion_distance" : ".9921837072194716",
        "perihelion_argument" : "79.61515862370014",
        "aphelion_distance" : "1.157173769226579",
        "perihelion_time" : "2458055.371591571243",
        "mean_anomaly" : "311.4562138365164",
        "mean_motion" : ".8846797545585416",
        "equinox" : "J2000"
      }
    }, {
      "links" : {
        "self" : "https://api.nasa.gov/neo/rest/v1/neo/3607823?api_key=t0TVs3DtDT2H8Oy2Zy8m2eVrNsAVKAexjcZXUckd"
      },
      "neo_reference_id" : "3607823",
      "name" : "(2012 QL14)",
      "nasa_jpl_url" : "http://ssd.jpl.nasa.gov/sbdb.cgi?sstr=3607823",
      "absolute_magnitude_h" : 24.4,
      "estimated_diameter" : {
        "kilometers" : {
          "estimated_diameter_min" : 0.0350392641,
          "estimated_diameter_max" : 0.0783501764
        },
        "meters" : {
          "estimated_diameter_min" : 35.0392641108,
          "estimated_diameter_max" : 78.3501764334
        },
        "miles" : {
          "estimated_diameter_min" : 0.0217723826,
          "estimated_diameter_max" : 0.0486845275
        },
        "feet" : {
          "estimated_diameter_min" : 114.9582192654,
          "estimated_diameter_max" : 257.0543928497
        }
      },
      "is_potentially_hazardous_asteroid" : false,
      "close_approach_data" : [ {
        "close_approach_date" : "1997-08-08",
        "epoch_date_close_approach" : 871023600000,
        "relative_velocity" : {
          "kilometers_per_second" : "16.7358395539",
          "kilometers_per_hour" : "60249.0223940533",
          "miles_per_hour" : "37436.3994981272"
        },
        "miss_distance" : {
          "astronomical" : "0.0991638234",
          "lunar" : "38.5747261047",
          "kilometers" : "14834697",
          "miles" : "9217853"
        },
        "orbiting_body" : "Earth"
      } ],
      "orbital_data" : {
        "orbit_id" : "8",
        "orbit_determination_date" : "2017-04-06 08:49:13",
        "orbit_uncertainty" : "7",
        "minimum_orbit_intersection" : ".0731904",
        "jupiter_tisserand_invariant" : "7.351",
        "epoch_osculation" : "2458000.5",
        "eccentricity" : ".541047706399183",
        "semi_major_axis" : ".7736377908298284",
        "inclination" : "15.33765952633955",
        "ascending_node_longitude" : "329.7584559257029",
        "orbital_period" : "248.5449486097718",
        "perihelion_distance" : ".3550628385176189",
        "perihelion_argument" : "194.227591588999",
        "aphelion_distance" : "1.192212743142038",
        "perihelion_time" : "2458055.649654482854",
        "mean_anomaly" : "280.1195770629041",
        "mean_motion" : "1.448430161279272",
        "equinox" : "J2000"
      }
    }, {
      "links" : {
        "self" : "https://api.nasa.gov/neo/rest/v1/neo/3475236?api_key=t0TVs3DtDT2H8Oy2Zy8m2eVrNsAVKAexjcZXUckd"
      },
      "neo_reference_id" : "3475236",
      "name" : "(2009 VW)",
      "nasa_jpl_url" : "http://ssd.jpl.nasa.gov/sbdb.cgi?sstr=3475236",
      "absolute_magnitude_h" : 21.6,
      "estimated_diameter" : {
        "kilometers" : {
          "estimated_diameter_min" : 0.1272198785,
          "estimated_diameter_max" : 0.2844722965
        },
        "meters" : {
          "estimated_diameter_min" : 127.2198785394,
          "estimated_diameter_max" : 284.4722965033
        },
        "miles" : {
          "estimated_diameter_min" : 0.0790507431,
          "estimated_diameter_max" : 0.1767628354
        },
        "feet" : {
          "estimated_diameter_min" : 417.3880663071,
          "estimated_diameter_max" : 933.3080892598
        }
      },
      "is_potentially_hazardous_asteroid" : true,
      "close_approach_data" : [ {
        "close_approach_date" : "1997-08-08",
        "epoch_date_close_approach" : 871023600000,
        "relative_velocity" : {
          "kilometers_per_second" : "17.4812473756",
          "kilometers_per_hour" : "62932.4905519807",
          "miles_per_hour" : "39103.8022543682"
        },
        "miss_distance" : {
          "astronomical" : "0.3954425767",
          "lunar" : "153.8271636963",
          "kilometers" : "59157368",
          "miles" : "36758684"
        },
        "orbiting_body" : "Earth"
      } ],
      "orbital_data" : {
        "orbit_id" : "24",
        "orbit_determination_date" : "2017-04-06 08:59:17",
        "orbit_uncertainty" : "1",
        "minimum_orbit_intersection" : ".0277283",
        "jupiter_tisserand_invariant" : "4.478",
        "epoch_osculation" : "2458000.5",
        "eccentricity" : ".5624055543647528",
        "semi_major_axis" : "1.439534285760391",
        "inclination" : "7.159009618489428",
        "ascending_node_longitude" : "54.4435921435135",
        "orbital_period" : "630.8577554560303",
        "perihelion_distance" : ".6299322077502498",
        "perihelion_argument" : "256.0551088745777",
        "aphelion_distance" : "2.249136363770532",
        "perihelion_time" : "2458240.345695412607",
        "mean_anomaly" : "223.1316654162041",
        "mean_motion" : ".570651619777212",
        "equinox" : "J2000"
      }
    } ]
  }
}